{"fetched_at":"2026-03-30T13:17:50Z","count":15418,"tles":[{"name":"STARLINK-30204","line1":"1 57472U 23107R   26087.75922888  .00000398  00000+0  23992-4 0  9998","line2":"2 57472  43.0027 228.3911 0001398 282.0327  78.0368 15.27582582148060","category":"Starlink"}]}