{
  "norad_id": 57472,
  "name": "STARLINK-30204",
  "history": [
    {
      "epoch": "2026-03-28T18:13:17.375232Z",
      "apogee_km": 484.0010376315313,
      "perigee_km": 482.08169159581394,
      "latitude_deg": 1.078549179219721e-05,
      "longitude_deg": 128.8936486980164,
      "height_km": 482.6183047069548,
      "semi_major_axis_km": 6861.178364613673,
      "eccentricity": 0.00013987,
      "inclination_deg": 43.0027,
      "raan_deg": 228.3911,
      "arg_perigee_deg": 282.0327,
      "mean_anomaly_deg": 78.0368,
      "mean_motion_rev_day": 15.27582582
    }
  ]
}